[{"OBJECT_NAME":"STARLINK-31789","OBJECT_ID":"2024-082P","EPOCH":"2026-03-09T13:26:31.849440","MEAN_MOTION":15.27582224,"ECCENTRICITY":0.0002285,"INCLINATION":43.0028,"RA_OF_ASC_NODE":140.4092,"ARG_OF_PERICENTER":271.7186,"MEAN_ANOMALY":88.3404,"EPHEMERIS_TYPE":0,"CLASSIFICATION_TYPE":"U","NORAD_CAT_ID":59644,"ELEMENT_SET_NO":999,"REV_AT_EPOCH":10499,"BSTAR":0.00086292,"MEAN_MOTION_DOT":0.00023562,"MEAN_MOTION_DDOT":0},{"OBJECT_NAME":"ARCSTONE","OBJECT_ID":"2025-135N","EPOCH":"2026-03-09T21:21:29.017152","MEAN_MOTION":15.28638458,"ECCENTRICITY":0.00041199,"INCLINATION":97.4495,"RA_OF_ASC_NODE":185.9194,"ARG_OF_PERICENTER":166.7863,"MEAN_ANOMALY":193.3485,"EPHEMERIS_TYPE":0,"CLASSIFICATION_TYPE":"U","NORAD_CAT_ID":64540,"ELEMENT_SET_NO":999,"REV_AT_EPOCH":3984,"BSTAR":0.00094899777,"MEAN_MOTION_DOT":0.00026427,"MEAN_MOTION_DDOT":0}]
